[{"OBJECT_NAME":"STARLINK-1159","OBJECT_ID":"2020-006P","EPOCH":"2026-03-10T00:00:02.999808","MEAN_MOTION":15.81930134,"ECCENTRICITY":0.0001934,"INCLINATION":53.0438,"RA_OF_ASC_NODE":233.2103,"ARG_OF_PERICENTER":143.6489,"MEAN_ANOMALY":161.0887,"EPHEMERIS_TYPE":0,"CLASSIFICATION_TYPE":"U","NORAD_CAT_ID":45057,"ELEMENT_SET_NO":999,"REV_AT_EPOCH":599,"BSTAR":0.00093798588,"MEAN_MOTION_DOT":0.00198257,"MEAN_MOTION_DDOT":0},{"OBJECT_NAME":"STARLINK-2116","OBJECT_ID":"2021-017C","EPOCH":"2026-03-10T00:00:02.999808","MEAN_MOTION":15.83206556,"ECCENTRICITY":0.00033393,"INCLINATION":53.0386,"RA_OF_ASC_NODE":82.6444,"ARG_OF_PERICENTER":325.049,"MEAN_ANOMALY":111.3473,"EPHEMERIS_TYPE":0,"CLASSIFICATION_TYPE":"U","NORAD_CAT_ID":47724,"ELEMENT_SET_NO":999,"REV_AT_EPOCH":599,"BSTAR":0.0013667213,"MEAN_MOTION_DOT":0.00311123,"MEAN_MOTION_DDOT":0}]
